FENGYUN 1C DEB          
1 30200U 99025VH  17345.78685755  .00000037  00000-0  34154-4 0  9992
2 30200  98.8670  86.2256 0151369 179.7849 180.3418 14.20033053564926
